ORBCOMM FM24 [-]        
1 25478U 98053D   23311.32580929  .00002744  00000+0  10063-2 0  9997
2 25478  45.0074 168.7455 0000926 133.4857 226.6067 14.34867556312927
ORBCOMM FM25 [-]        
1 25479U 98053E   23311.28995867  .00003159  00000+0  11514-2 0  9997
2 25479  45.0062 167.1494 0003201 177.8202 182.2659 14.34849258313212
ORBCOMM FM27 [+]        
1 25481U 98053G   23311.34474683  .00002952  00000+0  10796-2 0  9996
2 25481  45.0048 167.1479 0000866  17.0328 343.0548 14.34823887313157
ORBCOMM FM28 [-]        
1 25482U 98053H   23311.39122977  .00003411  00000+0  12278-2 0  9996
2 25482  45.0045 106.0509 0004282 223.7064 136.3444 14.35312603313822
ORBCOMM FM30 [-]        
1 25980U 99065A   23311.42101991  .00002848  00000+0  10492-2 0  9999
2 25980  45.0331 345.3020 0007666 296.3911  63.6149 14.34538361249973
ORBCOMM FM31 [-]        
1 25981U 99065B   23311.45784613  .00002376  00000+0  88327-3 0  9990
2 25981  45.0242 338.9702 0004470 306.2737  53.7696 14.34565644249530
ORBCOMM FM32 [+]        
1 25982U 99065C   23311.51444529  .00002376  00000+0  90177-3 0  9993
2 25982  45.0174 351.1490 0006334 315.0644  44.9690 14.33506979250197
