<?xml version="1.0" encoding="UTF-8"?>
<ndm xmlns:xsi="http://www.w3.org/2001/XMLSchema-instance" xsi:noNamespaceSchemaLocation="https://sanaregistry.org/r/ndmxml_unqualified/ndmxml-2.0.0-master-2.0.xsd">
<omm id="CCSDS_OMM_VERS" version="2.0">
<header><CREATION_DATE/><ORIGINATOR/></header><body><segment><metadata><OBJECT_NAME>ORBCOMM FM24 [-]</OBJECT_NAME><OBJECT_ID>1998-053D</OBJECT_ID><CENTER_NAME>EARTH</CENTER_NAME><REF_FRAME>TEME</REF_FRAME><TIME_SYSTEM>UTC</TIME_SYSTEM><MEAN_ELEMENT_THEORY>SGP4</MEAN_ELEMENT_THEORY></metadata><data><meanElements><EPOCH>2023-11-07T07:49:09.922656</EPOCH><MEAN_MOTION>14.34867556</MEAN_MOTION><ECCENTRICITY>.0000926</ECCENTRICITY><INCLINATION>45.0074</INCLINATION><RA_OF_ASC_NODE>168.7455</RA_OF_ASC_NODE><ARG_OF_PERICENTER>133.4857</ARG_OF_PERICENTER><MEAN_ANOMALY>226.6067</MEAN_ANOMALY></meanElements><tleParameters><EPHEMERIS_TYPE>0</EPHEMERIS_TYPE><CLASSIFICATION_TYPE>U</CLASSIFICATION_TYPE><NORAD_CAT_ID>25478</NORAD_CAT_ID><ELEMENT_SET_NO>999</ELEMENT_SET_NO><REV_AT_EPOCH>31292</REV_AT_EPOCH><BSTAR>.10063E-2</BSTAR><MEAN_MOTION_DOT>.2744E-4</MEAN_MOTION_DOT><MEAN_MOTION_DDOT>0</MEAN_MOTION_DDOT></tleParameters></data></segment></body></omm>
<omm id="CCSDS_OMM_VERS" version="2.0">
<header><CREATION_DATE/><ORIGINATOR/></header><body><segment><metadata><OBJECT_NAME>ORBCOMM FM25 [-]</OBJECT_NAME><OBJECT_ID>1998-053E</OBJECT_ID><CENTER_NAME>EARTH</CENTER_NAME><REF_FRAME>TEME</REF_FRAME><TIME_SYSTEM>UTC</TIME_SYSTEM><MEAN_ELEMENT_THEORY>SGP4</MEAN_ELEMENT_THEORY></metadata><data><meanElements><EPOCH>2023-11-07T06:57:32.429088</EPOCH><MEAN_MOTION>14.34849258</MEAN_MOTION><ECCENTRICITY>.0003201</ECCENTRICITY><INCLINATION>45.0062</INCLINATION><RA_OF_ASC_NODE>167.1494</RA_OF_ASC_NODE><ARG_OF_PERICENTER>177.8202</ARG_OF_PERICENTER><MEAN_ANOMALY>182.2659</MEAN_ANOMALY></meanElements><tleParameters><EPHEMERIS_TYPE>0</EPHEMERIS_TYPE><CLASSIFICATION_TYPE>U</CLASSIFICATION_TYPE><NORAD_CAT_ID>25479</NORAD_CAT_ID><ELEMENT_SET_NO>999</ELEMENT_SET_NO><REV_AT_EPOCH>31321</REV_AT_EPOCH><BSTAR>.11514E-2</BSTAR><MEAN_MOTION_DOT>.3159E-4</MEAN_MOTION_DOT><MEAN_MOTION_DDOT>0</MEAN_MOTION_DDOT></tleParameters></data></segment></body></omm>
<omm id="CCSDS_OMM_VERS" version="2.0">
<header><CREATION_DATE/><ORIGINATOR/></header><body><segment><metadata><OBJECT_NAME>ORBCOMM FM27 [+]</OBJECT_NAME><OBJECT_ID>1998-053G</OBJECT_ID><CENTER_NAME>EARTH</CENTER_NAME><REF_FRAME>TEME</REF_FRAME><TIME_SYSTEM>UTC</TIME_SYSTEM><MEAN_ELEMENT_THEORY>SGP4</MEAN_ELEMENT_THEORY></metadata><data><meanElements><EPOCH>2023-11-07T08:16:26.126112</EPOCH><MEAN_MOTION>14.34823887</MEAN_MOTION><ECCENTRICITY>.0000866</ECCENTRICITY><INCLINATION>45.0048</INCLINATION><RA_OF_ASC_NODE>167.1479</RA_OF_ASC_NODE><ARG_OF_PERICENTER>17.0328</ARG_OF_PERICENTER><MEAN_ANOMALY>343.0548</MEAN_ANOMALY></meanElements><tleParameters><EPHEMERIS_TYPE>0</EPHEMERIS_TYPE><CLASSIFICATION_TYPE>U</CLASSIFICATION_TYPE><NORAD_CAT_ID>25481</NORAD_CAT_ID><ELEMENT_SET_NO>999</ELEMENT_SET_NO><REV_AT_EPOCH>31315</REV_AT_EPOCH><BSTAR>.10796E-2</BSTAR><MEAN_MOTION_DOT>.2952E-4</MEAN_MOTION_DOT><MEAN_MOTION_DDOT>0</MEAN_MOTION_DDOT></tleParameters></data></segment></body></omm>
<omm id="CCSDS_OMM_VERS" version="2.0">
<header><CREATION_DATE/><ORIGINATOR/></header><body><segment><metadata><OBJECT_NAME>ORBCOMM FM28 [-]</OBJECT_NAME><OBJECT_ID>1998-053H</OBJECT_ID><CENTER_NAME>EARTH</CENTER_NAME><REF_FRAME>TEME</REF_FRAME><TIME_SYSTEM>UTC</TIME_SYSTEM><MEAN_ELEMENT_THEORY>SGP4</MEAN_ELEMENT_THEORY></metadata><data><meanElements><EPOCH>2023-11-07T09:23:22.252128</EPOCH><MEAN_MOTION>14.35312603</MEAN_MOTION><ECCENTRICITY>.0004282</ECCENTRICITY><INCLINATION>45.0045</INCLINATION><RA_OF_ASC_NODE>106.0509</RA_OF_ASC_NODE><ARG_OF_PERICENTER>223.7064</ARG_OF_PERICENTER><MEAN_ANOMALY>136.3444</MEAN_ANOMALY></meanElements><tleParameters><EPHEMERIS_TYPE>0</EPHEMERIS_TYPE><CLASSIFICATION_TYPE>U</CLASSIFICATION_TYPE><NORAD_CAT_ID>25482</NORAD_CAT_ID><ELEMENT_SET_NO>999</ELEMENT_SET_NO><REV_AT_EPOCH>31382</REV_AT_EPOCH><BSTAR>.12278E-2</BSTAR><MEAN_MOTION_DOT>.3411E-4</MEAN_MOTION_DOT><MEAN_MOTION_DDOT>0</MEAN_MOTION_DDOT></tleParameters></data></segment></body></omm>
<omm id="CCSDS_OMM_VERS" version="2.0">
<header><CREATION_DATE/><ORIGINATOR/></header><body><segment><metadata><OBJECT_NAME>ORBCOMM FM30 [-]</OBJECT_NAME><OBJECT_ID>1999-065A</OBJECT_ID><CENTER_NAME>EARTH</CENTER_NAME><REF_FRAME>TEME</REF_FRAME><TIME_SYSTEM>UTC</TIME_SYSTEM><MEAN_ELEMENT_THEORY>SGP4</MEAN_ELEMENT_THEORY></metadata><data><meanElements><EPOCH>2023-11-07T10:06:16.120224</EPOCH><MEAN_MOTION>14.34538361</MEAN_MOTION><ECCENTRICITY>.0007666</ECCENTRICITY><INCLINATION>45.0331</INCLINATION><RA_OF_ASC_NODE>345.3020</RA_OF_ASC_NODE><ARG_OF_PERICENTER>296.3911</ARG_OF_PERICENTER><MEAN_ANOMALY>63.6149</MEAN_ANOMALY></meanElements><tleParameters><EPHEMERIS_TYPE>0</EPHEMERIS_TYPE><CLASSIFICATION_TYPE>U</CLASSIFICATION_TYPE><NORAD_CAT_ID>25980</NORAD_CAT_ID><ELEMENT_SET_NO>999</ELEMENT_SET_NO><REV_AT_EPOCH>24997</REV_AT_EPOCH><BSTAR>.10492E-2</BSTAR><MEAN_MOTION_DOT>.2848E-4</MEAN_MOTION_DOT><MEAN_MOTION_DDOT>0</MEAN_MOTION_DDOT></tleParameters></data></segment></body></omm>
<omm id="CCSDS_OMM_VERS" version="2.0">
<header><CREATION_DATE/><ORIGINATOR/></header><body><segment><metadata><OBJECT_NAME>ORBCOMM FM31 [-]</OBJECT_NAME><OBJECT_ID>1999-065B</OBJECT_ID><CENTER_NAME>EARTH</CENTER_NAME><REF_FRAME>TEME</REF_FRAME><TIME_SYSTEM>UTC</TIME_SYSTEM><MEAN_ELEMENT_THEORY>SGP4</MEAN_ELEMENT_THEORY></metadata><data><meanElements><EPOCH>2023-11-07T10:59:17.905632</EPOCH><MEAN_MOTION>14.34565644</MEAN_MOTION><ECCENTRICITY>.000447</ECCENTRICITY><INCLINATION>45.0242</INCLINATION><RA_OF_ASC_NODE>338.9702</RA_OF_ASC_NODE><ARG_OF_PERICENTER>306.2737</ARG_OF_PERICENTER><MEAN_ANOMALY>53.7696</MEAN_ANOMALY></meanElements><tleParameters><EPHEMERIS_TYPE>0</EPHEMERIS_TYPE><CLASSIFICATION_TYPE>U</CLASSIFICATION_TYPE><NORAD_CAT_ID>25981</NORAD_CAT_ID><ELEMENT_SET_NO>999</ELEMENT_SET_NO><REV_AT_EPOCH>24953</REV_AT_EPOCH><BSTAR>.88327E-3</BSTAR><MEAN_MOTION_DOT>.2376E-4</MEAN_MOTION_DOT><MEAN_MOTION_DDOT>0</MEAN_MOTION_DDOT></tleParameters></data></segment></body></omm>
<omm id="CCSDS_OMM_VERS" version="2.0">
<header><CREATION_DATE/><ORIGINATOR/></header><body><segment><metadata><OBJECT_NAME>ORBCOMM FM32 [+]</OBJECT_NAME><OBJECT_ID>1999-065C</OBJECT_ID><CENTER_NAME>EARTH</CENTER_NAME><REF_FRAME>TEME</REF_FRAME><TIME_SYSTEM>UTC</TIME_SYSTEM><MEAN_ELEMENT_THEORY>SGP4</MEAN_ELEMENT_THEORY></metadata><data><meanElements><EPOCH>2023-11-07T12:20:48.073056</EPOCH><MEAN_MOTION>14.33506979</MEAN_MOTION><ECCENTRICITY>.0006334</ECCENTRICITY><INCLINATION>45.0174</INCLINATION><RA_OF_ASC_NODE>351.1490</RA_OF_ASC_NODE><ARG_OF_PERICENTER>315.0644</ARG_OF_PERICENTER><MEAN_ANOMALY>44.9690</MEAN_ANOMALY></meanElements><tleParameters><EPHEMERIS_TYPE>0</EPHEMERIS_TYPE><CLASSIFICATION_TYPE>U</CLASSIFICATION_TYPE><NORAD_CAT_ID>25982</NORAD_CAT_ID><ELEMENT_SET_NO>999</ELEMENT_SET_NO><REV_AT_EPOCH>25019</REV_AT_EPOCH><BSTAR>.90177E-3</BSTAR><MEAN_MOTION_DOT>.2376E-4</MEAN_MOTION_DOT><MEAN_MOTION_DDOT>0</MEAN_MOTION_DDOT></tleParameters></data></segment></body></omm>

</ndm>
